CCSDS_OMM_VERS = 2.0
CREATION_DATE  = 
ORIGINATOR     = 

OBJECT_NAME    = STARLINK-36636
OBJECT_ID      = 2026-018Y
CENTER_NAME    = EARTH
REF_FRAME      = TEME
TIME_SYSTEM    = UTC
MEAN_ELEMENT_THEORY = SGP/SGP4

EPOCH          = 2026-02-12T06:00:02.999808
MEAN_MOTION    = 15.80870556
ECCENTRICITY   = .00015509
INCLINATION    = 97.2747
RA_OF_ASC_NODE = 107.7997
ARG_OF_PERICENTER = 68.9245
MEAN_ANOMALY   = 276.7395

EPHEMERIS_TYPE = 0
CLASSIFICATION_TYPE = U
NORAD_CAT_ID   = 67611
ELEMENT_SET_NO = 999
REV_AT_EPOCH   = 326
BSTAR          = -.76336426E-3
MEAN_MOTION_DOT = -.144337E-2
MEAN_MOTION_DDOT = 0

CCSDS_OMM_VERS = 2.0
CREATION_DATE  = 
ORIGINATOR     = 

OBJECT_NAME    = STARLINK-36407
OBJECT_ID      = 2026-018Z
CENTER_NAME    = EARTH
REF_FRAME      = TEME
TIME_SYSTEM    = UTC
MEAN_ELEMENT_THEORY = SGP/SGP4

EPOCH          = 2026-02-12T06:00:02.999808
MEAN_MOTION    = 15.80820619
ECCENTRICITY   = .00010894
INCLINATION    = 97.2809
RA_OF_ASC_NODE = 107.8031
ARG_OF_PERICENTER = 94.8441
MEAN_ANOMALY   = 256.0297

EPHEMERIS_TYPE = 0
CLASSIFICATION_TYPE = U
NORAD_CAT_ID   = 67612
ELEMENT_SET_NO = 999
REV_AT_EPOCH   = 336
BSTAR          = -.62119238E-4
MEAN_MOTION_DOT = -.12026E-3
MEAN_MOTION_DDOT = 0

CCSDS_OMM_VERS = 2.0
CREATION_DATE  = 
ORIGINATOR     = 

OBJECT_NAME    = STARLINK-36597
OBJECT_ID      = 2026-018AA
CENTER_NAME    = EARTH
REF_FRAME      = TEME
TIME_SYSTEM    = UTC
MEAN_ELEMENT_THEORY = SGP/SGP4

EPOCH          = 2026-02-12T06:00:02.999808
MEAN_MOTION    = 15.80852493
ECCENTRICITY   = .00014263
INCLINATION    = 97.2805
RA_OF_ASC_NODE = 107.8051
ARG_OF_PERICENTER = 71.6849
MEAN_ANOMALY   = 285.0003

EPHEMERIS_TYPE = 0
CLASSIFICATION_TYPE = U
NORAD_CAT_ID   = 67613
ELEMENT_SET_NO = 999
REV_AT_EPOCH   = 326
BSTAR          = -.16466934E-3
MEAN_MOTION_DOT = -.31623E-3
MEAN_MOTION_DDOT = 0

CCSDS_OMM_VERS = 2.0
CREATION_DATE  = 
ORIGINATOR     = 

OBJECT_NAME    = NEONSAT-1A
OBJECT_ID      = 2026-019A
CENTER_NAME    = EARTH
REF_FRAME      = TEME
TIME_SYSTEM    = UTC
MEAN_ELEMENT_THEORY = SGP/SGP4

EPOCH          = 2026-02-12T07:03:00.956448
MEAN_MOTION    = 15.07598620
ECCENTRICITY   = .00120222
INCLINATION    = 97.4086
RA_OF_ASC_NODE = 167.7865
ARG_OF_PERICENTER = 260.0448
MEAN_ANOMALY   = 99.9424

EPHEMERIS_TYPE = 0
CLASSIFICATION_TYPE = U
NORAD_CAT_ID   = 67614
ELEMENT_SET_NO = 999
REV_AT_EPOCH   = 199
BSTAR          = .22958199E-3
MEAN_MOTION_DOT = .3438E-4
MEAN_MOTION_DDOT = 0

CCSDS_OMM_VERS = 2.0
CREATION_DATE  = 
ORIGINATOR     = 

OBJECT_NAME    = ELECTRON KICK STAGE R/B
OBJECT_ID      = 2026-019C
CENTER_NAME    = EARTH
REF_FRAME      = TEME
TIME_SYSTEM    = UTC
MEAN_ELEMENT_THEORY = SGP/SGP4

EPOCH          = 2026-02-12T06:13:58.042848
MEAN_MOTION    = 15.61739402
ECCENTRICITY   = .01831015
INCLINATION    = 97.4045
RA_OF_ASC_NODE = 168.7437
ARG_OF_PERICENTER = 214.6498
MEAN_ANOMALY   = 144.2722

EPHEMERIS_TYPE = 0
CLASSIFICATION_TYPE = U
NORAD_CAT_ID   = 67616
ELEMENT_SET_NO = 999
REV_AT_EPOCH   = 205
BSTAR          = .20699088E-2
MEAN_MOTION_DOT = .423687E-2
MEAN_MOTION_DDOT = .52018145E-4

CCSDS_OMM_VERS = 2.0
CREATION_DATE  = 
ORIGINATOR     = 

OBJECT_NAME    = STARLINK-36548
OBJECT_ID      = 2026-020A
CENTER_NAME    = EARTH
REF_FRAME      = TEME
TIME_SYSTEM    = UTC
MEAN_ELEMENT_THEORY = SGP/SGP4

EPOCH          = 2026-02-12T06:00:02.999808
MEAN_MOTION    = 15.76349425
ECCENTRICITY   = .00017876
INCLINATION    = 42.9986
RA_OF_ASC_NODE = 296.8960
ARG_OF_PERICENTER = 267.8759
MEAN_ANOMALY   = 313.9589

EPHEMERIS_TYPE = 0
CLASSIFICATION_TYPE = U
NORAD_CAT_ID   = 67617
ELEMENT_SET_NO = 999
REV_AT_EPOCH   = 330
BSTAR          = .43699725E-3
MEAN_MOTION_DOT = .71221E-3
MEAN_MOTION_DDOT = 0

CCSDS_OMM_VERS = 2.0
CREATION_DATE  = 
ORIGINATOR     = 

OBJECT_NAME    = STARLINK-36601
OBJECT_ID      = 2026-020B
CENTER_NAME    = EARTH
REF_FRAME      = TEME
TIME_SYSTEM    = UTC
MEAN_ELEMENT_THEORY = SGP/SGP4

EPOCH          = 2026-02-12T03:20:35.704896
MEAN_MOTION    = 15.82092452
ECCENTRICITY   = .00020413
INCLINATION    = 42.9977
RA_OF_ASC_NODE = 297.4504
ARG_OF_PERICENTER = 252.8009
MEAN_ANOMALY   = 107.2640

EPHEMERIS_TYPE = 0
CLASSIFICATION_TYPE = U
NORAD_CAT_ID   = 67618
ELEMENT_SET_NO = 999
REV_AT_EPOCH   = 205
BSTAR          = .14366393E-2
MEAN_MOTION_DOT = .314339E-2
MEAN_MOTION_DDOT = 0

CCSDS_OMM_VERS = 2.0
CREATION_DATE  = 
ORIGINATOR     = 

OBJECT_NAME    = STARLINK-36119
OBJECT_ID      = 2026-020C
CENTER_NAME    = EARTH
REF_FRAME      = TEME
TIME_SYSTEM    = UTC
MEAN_ELEMENT_THEORY = SGP/SGP4

EPOCH          = 2026-02-12T06:00:02.999808
MEAN_MOTION    = 15.76383581
ECCENTRICITY   = .00020623
INCLINATION    = 42.9989
RA_OF_ASC_NODE = 296.8650
ARG_OF_PERICENTER = 264.0749
MEAN_ANOMALY   = 330.1992

EPHEMERIS_TYPE = 0
CLASSIFICATION_TYPE = U
NORAD_CAT_ID   = 67619
ELEMENT_SET_NO = 999
REV_AT_EPOCH   = 330
BSTAR          = -.97201829E-4
MEAN_MOTION_DOT = -.16299E-3
MEAN_MOTION_DDOT = 0

CCSDS_OMM_VERS = 2.0
CREATION_DATE  = 
ORIGINATOR     = 

OBJECT_NAME    = STARLINK-36607
OBJECT_ID      = 2026-020D
CENTER_NAME    = EARTH
REF_FRAME      = TEME
TIME_SYSTEM    = UTC
MEAN_ELEMENT_THEORY = SGP/SGP4

EPOCH          = 2026-02-12T03:18:02.463264
MEAN_MOTION    = 15.82070905
ECCENTRICITY   = .00022699
INCLINATION    = 42.9984
RA_OF_ASC_NODE = 297.4352
ARG_OF_PERICENTER = 249.0875
MEAN_ANOMALY   = 110.9754

EPHEMERIS_TYPE = 0
CLASSIFICATION_TYPE = U
NORAD_CAT_ID   = 67620
ELEMENT_SET_NO = 999
REV_AT_EPOCH   = 205
BSTAR          = .12431658E-2
MEAN_MOTION_DOT = .270269E-2
MEAN_MOTION_DDOT = 0

CCSDS_OMM_VERS = 2.0
CREATION_DATE  = 
ORIGINATOR     = 

OBJECT_NAME    = STARLINK-36615
OBJECT_ID      = 2026-020E
CENTER_NAME    = EARTH
REF_FRAME      = TEME
TIME_SYSTEM    = UTC
MEAN_ELEMENT_THEORY = SGP/SGP4

EPOCH          = 2026-02-12T03:18:58.638816
MEAN_MOTION    = 15.82115066
ECCENTRICITY   = .00018078
INCLINATION    = 42.9980
RA_OF_ASC_NODE = 297.4414
ARG_OF_PERICENTER = 275.0992
MEAN_ANOMALY   = 84.9674

EPHEMERIS_TYPE = 0
CLASSIFICATION_TYPE = U
NORAD_CAT_ID   = 67621
ELEMENT_SET_NO = 999
REV_AT_EPOCH   = 205
BSTAR          = .14306376E-2
MEAN_MOTION_DOT = .313315E-2
MEAN_MOTION_DDOT = 0

CCSDS_OMM_VERS = 2.0
CREATION_DATE  = 
ORIGINATOR     = 

OBJECT_NAME    = STARLINK-36614
OBJECT_ID      = 2026-020F
CENTER_NAME    = EARTH
REF_FRAME      = TEME
TIME_SYSTEM    = UTC
MEAN_ELEMENT_THEORY = SGP/SGP4

EPOCH          = 2026-02-12T06:00:02.999808
MEAN_MOTION    = 15.76414461
ECCENTRICITY   = .00023714
INCLINATION    = 43.0019
RA_OF_ASC_NODE = 296.8027
ARG_OF_PERICENTER = 264.5180
MEAN_ANOMALY   = 354.6145

EPHEMERIS_TYPE = 0
CLASSIFICATION_TYPE = U
NORAD_CAT_ID   = 67622
ELEMENT_SET_NO = 999
REV_AT_EPOCH   = 330
BSTAR          = -.41970424E-3
MEAN_MOTION_DOT = -.68438E-3
MEAN_MOTION_DDOT = 0

CCSDS_OMM_VERS = 2.0
CREATION_DATE  = 
ORIGINATOR     = 

OBJECT_NAME    = STARLINK-36600
OBJECT_ID      = 2026-020G
CENTER_NAME    = EARTH
REF_FRAME      = TEME
TIME_SYSTEM    = UTC
MEAN_ELEMENT_THEORY = SGP/SGP4

EPOCH          = 2026-02-12T06:00:02.999808
MEAN_MOTION    = 15.76382379
ECCENTRICITY   = .00015198
INCLINATION    = 42.9989
RA_OF_ASC_NODE = 296.8338
ARG_OF_PERICENTER = 264.1283
MEAN_ANOMALY   = 342.5867

EPHEMERIS_TYPE = 0
CLASSIFICATION_TYPE = U
NORAD_CAT_ID   = 67623
ELEMENT_SET_NO = 999
REV_AT_EPOCH   = 330
BSTAR          = -.13088213E-3
MEAN_MOTION_DOT = -.2176E-3
MEAN_MOTION_DDOT = 0

